              M50 Cartesian                         J2K Cartesian  
    -----------------------------------       --------------------------------
     X    =        9835812.60                 X    =         2942472.99
     Y    =       18943722.97  feet           Y    =         5807261.50  meter
     Z    =       -6286040.35                 Z    =        -1901557.17
     XDOT =     -17010.950728                 XDOT =       -5166.854171
     YDOT =       2769.918911  feet/sec       YDOT =         786.390496  meter/sec
     ZDOT =     -18330.123735                 ZDOT =       -5612.164770
 
              TDR Cartesian                         TDR Cartesian  
    -----------------------------------       --------------------------------
     X    =        5046107.41                 X    =         1538053.54
     Y    =       20758502.84  feet           Y    =         6327191.67  meter
     Z    =       -6224428.69                 Z    =        -1897205.86
     XDOT =     -15550.090208                 XDOT =       -4739.667495
     YDOT =      -1730.694921  feet/sec       YDOT =        -527.515812  meter/sec
     ZDOT =     -18439.284493                 ZDOT =       -5620.293913
  
  
    The mean element set is posted at the UTC for which position is
    just north of the next ascending node relative to the above
    vector time
 
 
    TWO LINE MEAN ELEMENT SET
  
    ISS
    1 25544U 98067A   16062.54580937  .00016717  00000-0  10270-3 0  9148
    2 25544  51.6380 229.8268 0003294 189.1831 170.9262 15.54475868 28393
  
  
    Satellite: ISS
    Catalog Number: 25544
    Epoch time:      16062.54580937   =   yrday.fracday
    Element set:     914
    Inclination:       51.6380  deg
    RA of node:       229.8268  deg
    Eccentricity:     .0003294     
    Arg of perigee:   189.1831  deg
    Mean anomaly:     170.9262  deg
    Mean motion:   15.54475868  rev/day
    Decay rate:    1.67170E-04  rev/day^2
    Epoch rev:            2839
    Checksum:              345
 
 
    Coasting Arc #16 (Orbit 2854)
    ---------------------------------------
 
    Vector Time (GMT): 2016/063/12:25:00.000
    Vector Time (MET): N/A
    Weight (LBS)     : 906643.5
 
              M50 Cartesian                         M50 Keplerian  
    -----------------------------------       --------------------------------
     X    =       -1774959.34                 A    =         6783232.25  meter
     Y    =       -5552593.05  meter          E    =           .0012068
     Z    =        3462131.54                 I    =           51.38145
     XDOT =       6125.281220                 Wp   =          107.46296
     YDOT =        877.495426  meter/sec      RA   =          223.95079  deg
     ZDOT =       4530.999048                 TA   =          293.34778
                                              MA   =          293.47470
                                              Ha   =            220.587  n.mi
                                              Hp   =            214.315
 
              M50 Cartesian                         J2K Cartesian  
    -----------------------------------       --------------------------------
     X    =       -5823357.41                 X    =        -1729554.30
     Y    =      -18217168.79  feet           Y    =        -5572187.66  meter
     Z    =       11358699.29                 Z    =         3453620.07
     XDOT =      20096.066996                 XDOT =        6093.004215
     YDOT =       2878.922002  feet/sec       YDOT =         945.812287  meter/sec
     ZDOT =      14865.482441                 ZDOT =        4560.675320
 
              TDR Cartesian                         TDR Cartesian  
    -----------------------------------       --------------------------------
     X    =       -1685038.66                 X    =         -513599.78
     Y    =      -19072336.79  feet           Y    =        -5813248.25  meter
     Z    =       11322693.77                 Z    =         3451157.06
     XDOT =      17463.239063                 XDOT =        5322.795266
     YDOT =       7391.146681  feet/sec       YDOT =        2252.821508  meter/sec
     ZDOT =      14994.031558                 ZDOT =        4570.180819
  
  
    The mean element set is posted at the UTC for which position is
    just north of the next ascending node relative to the above
    vector time
 
 
    TWO LINE MEAN ELEMENT SET
  
    ISS
    1 25544U 98067A   16063.57442018  .00016717  00000-0  10270-3 0  9150
    2 25544  51.6379 224.6956 0003492 193.4955 166.6105 15.54488614 28552
  
  
    Satellite: ISS
    Catalog Number: 25544
    Epoch time:      16063.57442018   =   yrday.fracday
    Element set:     915
    Inclination:       51.6379  deg
    RA of node:       224.6956  deg
    Eccentricity:     .0003492     
    Arg of perigee:   193.4955  deg
    Mean anomaly:     166.6105  deg
    Mean motion:   15.54488614  rev/day
    Decay rate:    1.67170E-04  rev/day^2
    Epoch rev:            2855
    Checksum:              336
 
             </PRE>
           </TD>
        </TR>
    </TABLE>
    
    <table align="center" border="0" width="600" cellpadding="0" cellspacing="0">
      <tr>
        <td align="center" valign="top"><hr size="1" width="600" noshade="noshade" />
        <font face="Arial,helvetica" size="-2">Curator: <a href="/cgi-bin/comment.cgi?jsc-hsfwebma@mail.nasa.gov">Kim 
          Dismukes</a> | Responsible NASA Official: <a href="/cgi-bin/comment.cgi?jsc-hsfwebma@mail.nasa.gov">Amiko Kauderer</a> | Updated: 06/08/2009<br />
        <a href="http://www.nasa.gov/about/highlights/HP_Privacy.html">Privacy Policy and Important Notices</a></font></td>
      </tr>
    </table>
    </body>
    </html>
